#dP2021  3  4  0  0  0.00000000      96 __u+U ITR00 FIT  IAC
## 2147 345600.00000000   900.00000000 59277 0.0000000000000
+  128   C01C02C03C04C05C06C07C08C09C10C11C12C13C14C16C19C20
+        C21C22C23C24C25C26C27C28C29C30C32C33C34C35C36C37C38
+        C39C40C41C42C43C44C45C46C59C60E01E02E03E04E05E07E08
+        E09E11E12E13E14E15E18E19E21E24E25E26E27E30E31E33E36
+        G01G02G03G04G05G06G07G08G09G10G11G12G13G14G15G16G17
+        G18G19G20G21G22G23G24G25G26G27G28G29G30G31G32J01J02
+        J03J07R01R02R03R04R05R06R07R08R09R10R11R12R13R14R15
+        R16R17R18R19R20R21R22R23R24  0  0  0  0  0  0  0  0
++        13 13 13 12 13  9  9 10  9  9  9  9  9  9  9  8  8
++         8  8  8  8  8  8  8  8  8  8  8  8  8  8  9  8 10
++         9  9  9  8  9  9  9  9 15  0  4  5  4  5  4  4  5
++         5  5  5  4  4  4  5  5  5  5  5  5  5  5  5  5  5
++         4  4  3  7  4  4  4  4  4  4  5  4  4  4  5  4  4
++         4  3  4  4  4  4  4  4  4  4  4  4  4  4  4  9  9
++         9 14  7  6  6  6  6 13  6  6  6 13  8  6  8  6  6
++         8  6  6  8  8  6  8 13  6  0  0  0  0  0  0  0  0
%c M  cc GPS ccc cccc cccc cccc cccc ccccc ccccc ccccc ccccc
%c cc cc ccc ccc cccc cccc cccc cccc ccccc ccccc ccccc ccccc
%f  0.0000000  0.000000000  0.00000000000  0.000000000000000
%f  0.0000000  0.000000000  0.00000000000  0.000000000000000
%i    0    0    0    0      0      0      0      0         0
%i    0    0    0    0      0      0      0      0         0
/* INFORMATION & ANALYSIS CENTER (IAC)            RAPID DATA
/* S/V CLOCKS ARE ALIGNED TO GNSS TIME                      
/* G:C1WC2W R:C1PC2P E:C1XC5X C:C2IC6I J:C1CC2S             
/* PCV:IGS14_2134 OL/AL:FES2004  NONE     YN ORB:CoN CLK:CoN
*  2021 03 04 22 30  0.00000000
PC01 -34381.096276  24390.893089   -153.538644   -685.738841
PC02   4409.794799  41953.812527    837.436044    465.266655
PC03 -14806.440002  39521.246176   -114.826724   -512.990096
PC04 -39623.872992  14381.182031   -632.830579    157.196985
PC05  21947.372674  36035.509395    711.187772   -876.061166
PC06  -7931.699569  24971.208600  33557.386621    146.252659
PC07 -24703.936048  28539.600806 -19023.442708   -385.643272
PC08 -13325.081604  37626.038964 -12862.970878   -904.891766
PC09   6237.377238  32077.372431  27149.777093    691.582872
PC10 -10730.499056  29871.962787 -27738.357578    -76.826776
PC11    995.479024 -19113.546816  20385.037234   -888.036852
PC12  15850.334062  -4528.884025  22551.592420    840.753158
PC13  -4382.150784  41767.709830   1603.454262    166.664261
PC14  11535.646860 -16422.454440 -19339.466753    319.101421
PC16  -3740.610689  26516.339050  32716.014075   -720.366168
PC19   -602.396654  16251.801990  22706.934337    749.703890
PC20 -19363.905187  14391.925529  14065.530123   -923.762438
PC21  27429.391795  -3749.092027   3448.875144   -867.938686
PC22  19038.097729   8775.468783  18412.703398   -902.977160
PC23 -10562.722990 -15465.897117  20687.321945   -876.336642
PC24  14393.221178 -21832.402019  -9799.697007   -774.370972
PC25   1613.337542 -26589.652179   8346.999027   -953.664443
PC26  17380.482785  -5848.192273 -21055.297622    940.042121
PC27 -20766.637258  -4586.513294 -18072.851756    493.237420
PC28 -19788.261772 -19498.784871  -2645.772502   -102.354350
PC29   8064.868818  22612.421382 -14237.312464    360.544729
PC30  -9507.492656  12913.771226 -22842.158663    449.781211
PC32 -27411.218690   3987.761505  -3403.676329   -905.399187
PC33    575.924290 -16274.376231 -22651.219982   -951.306950
PC34   9017.210197 -13423.450886  22734.120179   -726.423023
PC35  20353.850238  18977.451079   2347.160160   -389.989780
PC36  -2480.429483  26601.249389  -8032.985459   -746.383859
PC37 -17406.522161   4439.692739  21361.057971   -871.713937
PC38 -12060.593617  39101.845177  -9890.092740    133.772530
PC39  -2227.713517  26489.987181  32768.976635     29.052978
PC40 -16949.793890  25224.672661 -29285.867077    137.624820
PC41 -18872.308783  -8863.208508 -18493.479997   -930.591875
PC42  19911.145226 -14148.288505 -13438.855637   -913.545778
PC43  -7468.655939 -22599.852431  14540.711554   -624.815615
PC44  21076.712865   4075.557206  17845.437825     69.226520
PC45  10552.267304  15310.395053 -20802.693419    378.066499
PC46 -13902.051250  22414.389730   9053.823378    377.910173
PC59 -32287.341873  27099.618501    620.152810      0.749870
PC60      0.000000      0.000000      0.000000 999999.999999
PE01  21198.802783 -20646.275523   -971.496316  -1058.693562
PE02 -21129.131796  20695.016167    848.106573    202.703655
PE03 -18625.231360  10283.795805  20582.798247   -405.277373
PE04  -2278.546304 -17775.483784 -23553.497302   -722.168822
PE05 -28894.178992  -3354.037847   5485.130867   -299.691223
PE07  22209.621226  14907.823978  12671.858722   -508.573139
PE08   2747.248735  17667.364168  23589.082803   6038.084456
PE09 -22439.628789 -14649.611893 -12582.178641   5745.609769
PE11 -14550.874255 -23051.967166 -11509.868631   6246.062509
PE12  -2875.287593 -28376.647808   7878.614530   5326.454627
PE13  14439.251912  23313.374272  11167.571171    413.050301
PE14 -27859.807322  -2143.632954 -14517.083172  -1350.566873
PE15   3047.638085  28382.600331  -7836.572788    826.315860
PE18  22855.285889   9019.745643   4728.271809  -1476.673798
PE19  20517.010104  -8792.921111 -19437.838783    218.710103
PE21  22905.616043  -6487.846138 -17602.863686   -651.786462
PE24 -10788.812635 -12637.584515  24481.011621   -775.414754
PE25 -22845.291252   6305.525003  17728.476247   -527.720936
PE26  17359.918413   3750.035451  23690.322158   2079.455904
PE27  11428.504309  11955.742005 -24549.396753     17.313907
PE30  -7507.264202  23441.668347 -16437.592925   3133.169537
PE31   6707.233190 -23272.919483  17025.688459   -478.858937
PE33  10142.725263 -16722.628248  22224.790949   -466.226726
PE36 -17314.104046  -4543.098436 -23562.325386    432.616810
PG01  13442.022508  -8643.525228  20899.064483    748.551982
PG02 -13344.516518 -16043.142642 -15753.723051   -582.904303
PG03  23018.336079 -12704.028447   3260.521867    -99.122610
PG04  20856.725781  -1837.036945 -16371.052970   -184.173963
PG05 -19728.596056  -1422.824333 -17964.362391    -35.319285
PG06  -5998.936014 -24994.226732  -6510.545989     -0.653214
PG07   7458.486722 -21911.763907 -12233.685715     79.130916
PG08  24344.256944   3563.417619  10387.546476    -12.507914
PG09  11043.276707 -11507.761165 -21299.760776   -328.267207
PG10  -3306.829847  18111.947976  19155.275333    -74.171714
PG11  16645.912482  -2408.277214  20049.956800     -7.972319
PG12 -24091.783308   8562.678033   6638.081141     -9.388317
PG13 -22995.185755 -13140.429931   2629.680847    104.045118
PG14   5617.942515 -18422.631217  18273.913082     99.537451
PG15 -24645.416486   -917.373893   9951.956510   -165.352723
PG16  18066.191784   5006.639667 -19236.428488   -289.080646
PG17  -6323.290094 -18048.826388  18859.945439    404.246187
PG18  -5679.971051  24003.141929  -9778.848402    349.593815
PG19 -14105.267693 -18663.958659  12380.523943    -30.638101
PG20 -13001.586433  20980.949912   9387.065146    524.409808
PG21  15781.712492    123.104399  22120.882945    100.513009
PG22  22600.096015  -6878.817488  12160.423822   -667.255395
PG23 -13780.628646  19540.812856  11497.464847    118.119201
PG24 -15379.335309   2956.582996  21199.232194      1.538554
PG25 -18713.338493  17695.442318  -6115.039662     92.412240
PG26   9606.038245  12339.898091 -21525.175094     53.464260
PG27  23521.098807  12696.898055  -1520.995533    -87.824017
PG28   3249.701178 -17488.863701  20343.574494    606.951083
PG29 -11372.634982  10122.620233 -21810.562739   -305.923950
PG30   -338.989805 -26415.613381   -958.659943   -393.654389
PG31   7518.215386  23499.027852  -9271.017464   -103.656102
PG32   8834.146478  18011.656022  17589.682032     20.481860
PJ01 -29751.329629  24578.114345  21875.068311   -352.377123
PJ02 -34106.544765  24406.272016   9272.466681      2.806137
PJ03 -22505.271112  19113.179904 -25507.267826     -1.333983
PJ07 -25322.107456  33717.999220     56.596585 999999.999999
PR01 -13497.070533  10009.226062  19199.467631     75.917042
PR02   9361.519809   9930.238264  21605.520341    469.426526
PR03  23322.254553   3814.407906   9712.871559     31.819387
PR04  23982.675711  -4320.271152  -7522.754736     76.478672
PR05  11317.288630  -9982.282769 -20560.161307     67.567669
PR06 -10553.964341  -9610.061520 -21142.110864    193.814534
PR07 -23567.710428  -3495.129870  -9011.704235    -42.515852
PR08 -23920.639247   4452.246453   7679.563359    -57.713501
PR09   -164.723427 -18499.769381  17540.649963    -18.745252
PR10 -10213.923813  -4138.375768  22988.830819    -66.852848
PR11 -15111.719098  13697.042835  15331.207997      2.621063
PR12 -11087.364413  22886.879526  -1776.927866    209.905083
PR13   -361.803596  18779.237993 -17277.856478    -51.539641
PR14  10792.805797   3200.359419 -22883.511251     61.665475
PR15  15389.581724 -13773.011673 -14961.843132    105.100856
PR16  10156.473661 -23319.950157   2684.182501    -12.056756
PR17  16145.348025  15154.862174  12646.067036    405.202959
PR18  11949.060862    114.787338  22562.672211     68.682845
PR19   2283.368779 -14529.794960  20843.624369   -134.418871
PR20 -10403.673320 -22670.276603   5228.338386    -44.484136
PR21 -16057.142808 -14412.994839 -13617.957500   -192.011722
PR22 -11285.889433   1052.139913 -22849.252977   -100.938177
PR23   3007.349485  19202.967007 -16526.445792    369.930790
PR24  11032.675700  22564.365286  -4411.088946     33.780019
EOF
